     2.11           N: GPS NAV DATA                         RINEX VERSION / TYPE
teqc  2016Apr1      cors-adm            20161111 00:48:01UTCPGM / RUN BY / DATE
Solaris x86 5.10|AMD64|cc SC5.8 -xarch=amd64|=+|=+          COMMENT
     2.10           N: GPS NAV DATA                         COMMENT
rvacn.e(1404.07)                        2016-11-11T00:31 GMTCOMMENT
This file contains the validated broadcast navigation       COMMENT
messages from the following files:                          COMMENT
aaaa3150.16n, algo315x.16n, alic315x.16n, amc2315x.16n,     COMMENT
bor1315x.16n, cedu315x.16n, chpi315x.16n, chur315x.16n,     COMMENT
coco315x.16n, cord315x.16n, cro1315x.16n, darw315x.16n,     COMMENT
dav1315x.16n, dgar315x.16n, drao315x.16n, dubo315x.16n,     COMMENT
flin315x.16n, glps315x.16n, glsv315x.16n, gode315x.16n,     COMMENT
gold315x.16n, guam315x.16n, hlfx315x.16n, hob2315x.16n,     COMMENT
hofn315x.16n, hrao315x.16n, iisc315x.16n, ispa315x.16n,     COMMENT
joze315x.16n, kit3315x.16n, kokb315x.16n, lhaz315x.16n,     COMMENT
lpgs315x.16n, madr315x.16n, mas1315x.16n, mate315x.16n,     COMMENT
maw1315x.16n, mcm4315x.16n, nico315x.16n, nlib315x.16n,     COMMENT
not1315x.16n, nrc1315x.16n, nya1315x.16n, nyal315x.16n,     COMMENT
ohi3315x.16n, onsa315x.16n, pert315x.16n, pie1315x.16n,     COMMENT
pimo315x.16n, quin315x.16n, rabt315x.16n, reun315x.16n,     COMMENT
reyk315x.16n, sant315x.16n, sch2315x.16n, stjo315x.16n,     COMMENT
suth315x.16n, syog315x.16n, tidb315x.16n, tow2315x.16n,     COMMENT
tro1315x.16n, tskb315x.16n, unsa315x.16n, vill315x.16n,     COMMENT
whit315x.16n, wsrt315x.16n, wtzr315x.16n, yell315x.16n,     COMMENT
zimm315x.16n                                                COMMENT
    1.2107D-08 -7.4506D-09 -1.1921D-07  5.9605D-08          ION ALPHA
    9.8304D+04 -8.1920D+04 -1.9661D+05  4.5875D+05          ION BETA
    9.313225746155D-10 4.440892098501D-15    61440     1923 DELTA-UTC: A0,A1,T,W
                                                            END OF HEADER
 4 16 11 10  6  0  0.0 1.506274566054D-05 2.842170943040D-12 0.000000000000D+00
    1.000000000000D+02 7.787500000000D+01 4.544832167645D-09 2.049948394202D+00
    3.973022103310D-06 8.362012682483D-03 7.029622793198D-06 5.153591438293D+03
    3.672000000000D+05 1.173466444016D-07-2.965954047754D+00-1.117587089539D-08
    9.664546863398D-01 2.449375000000D+02-9.717653335153D-01-8.055335537058D-09
    2.939408152434D-10 1.000000000000D+00 1.922000000000D+03 0.000000000000D+00
    5.700000000000D+00 6.300000000000D+01-4.190951585770D-09 1.000000000000D+02
    3.602100000000D+05
 5 16 11 10  6  0  0.0-7.902551442385D-05 2.387423592154D-12 0.000000000000D+00
    5.600000000000D+01-4.118750000000D+01 4.584833833875D-09 1.418304887097D+00
   -1.950189471245D-06 4.865580354817D-03 1.225620508194D-05 5.153637424469D+03
    3.672000000000D+05-6.705522537231D-08 2.143836530848D+00-1.676380634308D-08
    9.463682447217D-01 1.380312500000D+02 5.509265032259D-01-8.060335745337D-09
   -2.092944322389D-10 1.000000000000D+00 1.922000000000D+03 0.000000000000D+00
    2.000000000000D+00 0.000000000000D+00-1.071020960808D-08 5.600000000000D+01
    3.600000000000D+05
 7 16 11 10  6  0  0.0 4.121726378798D-04-3.296918293927D-12 0.000000000000D+00
    6.800000000000D+01-1.915625000000D+01 4.783056376354D-09-2.165317869243D+00
   -1.236796379089D-06 1.004593190737D-02 5.068257451057D-06 5.153619857788D+03
    3.672000000000D+05 1.322478055954D-07-2.009131532964D+00-1.024454832077D-07
    9.644037439498D-01 2.835625000000D+02-2.615170708448D+00-8.287845222020D-09
   -1.371485699313D-10 1.000000000000D+00 1.922000000000D+03 0.000000000000D+00
    2.000000000000D+00 0.000000000000D+00-1.117587089539D-08 6.800000000000D+01
    3.604200000000D+05 4.000000000000D+00
 8 16 11 10  6  0  0.0-3.845058381557D-05-1.364242052659D-12 0.000000000000D+00
    3.700000000000D+01 4.306250000000D+01 4.572333313178D-09 1.389016247496D+00
    2.134591341019D-06 1.944019575603D-03 6.740912795067D-06 5.153777841568D+03
    3.672000000000D+05 7.264316082001D-08 5.428556032006D-02-1.303851604462D-08
    9.652078310204D-01 2.492500000000D+02-1.000757629801D+00-8.201770208079D-09
    2.914407111040D-10 1.000000000000D+00 1.922000000000D+03 0.000000000000D+00
    2.000000000000D+00 0.000000000000D+00 5.122274160385D-09 3.700000000000D+01
    3.611100000000D+05 4.000000000000D+00
 9 16 11 10  6  0  0.0 2.417108044028D-04 7.275957614183D-12 0.000000000000D+00
    8.900000000000D+01 7.937500000000D+01 4.739125975048D-09 7.790549915675D-01
    4.110857844353D-06 6.877190899104D-04 7.871538400650D-06 5.153749261856D+03
    3.672000000000D+05 3.539025783539D-08-3.087574599544D+00-4.656612873077D-08
    9.547040119170D-01 2.219687500000D+02 1.816512341053D+00-8.256058183677D-09
    4.114457097939D-10 1.000000000000D+00 1.922000000000D+03 0.000000000000D+00
    2.000000000000D+00 0.000000000000D+00 1.396983861923D-09 8.900000000000D+01
    3.600300000000D+05 4.000000000000D+00
10 16 11 10  6  0  0.0-1.133801415560D-04-1.818989403550D-12 0.000000000000D+00
    2.000000000000D+01-2.559375000000D+01 4.318037006430D-09 2.723583850030D+00
   -1.272186636920D-06 1.883016200740D-03 1.123547554020D-05 5.153683286670D+03
    3.672000000000D+05-2.793967723850D-08 2.154108992380D+00-2.421438694000D-08
    9.595656719790D-01 1.619062500000D+02-2.936475809580D+00-7.901043395890D-09
   -1.114332130690D-10 1.000000000000D+00 1.922000000000D+03 0.000000000000D+00
    2.400000000000D+00 0.000000000000D+00 2.328306436540D-09 2.000000000000D+01
    3.600180000000D+05 4.000000000000D+00
11 16 11 10  6  0  0.0-6.708055734634D-04-1.932676241267D-12 0.000000000000D+00
    5.200000000000D+01-1.334375000000D+01 6.202401212049D-09-2.082844067524D+00
   -4.395842552185D-07 1.677464612294D-02 3.084540367126D-06 5.153682868958D+03
    3.672000000000D+05 2.142041921616D-07 7.269985980211D-01 1.769512891769D-07
    8.984368047106D-01 2.838750000000D+02 1.597158586032D+00-8.907871048585D-09
    3.678724662220D-11 1.000000000000D+00 1.922000000000D+03 0.000000000000D+00
    2.800000000000D+00 0.000000000000D+00-1.210719347000D-08 5.200000000000D+01
    3.600180000000D+05 4.000000000000D+00
12 16 11 10  6  0  0.0 3.894846886396D-04 0.000000000000D+00 0.000000000000D+00
    7.100000000000D+01-2.434375000000D+01 3.776585881389D-09-2.753666444529D+00
   -1.234933733940D-06 6.076112505980D-03 1.092255115509D-05 5.153634515762D+03
    3.672000000000D+05 4.656612873077D-08-9.288789742349D-01-1.471489667892D-07
    9.899852613627D-01 1.819687500000D+02 7.809122128825D-01-7.609602684782D-09
   -8.464638300447D-11 1.000000000000D+00 1.922000000000D+03 0.000000000000D+00
    2.000000000000D+00 0.000000000000D+00-1.257285475731D-08 7.100000000000D+01
    3.600000000000D+05
13 16 11 10  6  0  0.0-5.408516153693D-05-2.046363078989D-12 0.000000000000D+00
    3.600000000000D+01 7.209375000000D+01 4.484472510566D-09-1.142961642312D+00
    3.766268491745D-06 4.027961986139D-03 7.297843694687D-06 5.153687013626D+03
    3.672000000000D+05-8.009374141693D-08-2.964393168291D+00-3.166496753693D-08
    9.709325878795D-01 2.459687500000D+02 1.906324100359D+00-8.160339910912D-09
    3.878732993369D-10 1.000000000000D+00 1.922000000000D+03 0.000000000000D+00
    2.000000000000D+00 0.000000000000D+00-1.117587089539D-08 3.600000000000D+01
    3.600000000000D+05
14 16 11 10  6  0  0.0-4.432816058397D-05-1.705302565824D-12 0.000000000000D+00
    2.900000000000D+01 7.259375000000D+01 4.649122226030D-09 1.966686105970D-01
    3.695487976074D-06 8.688327856362D-03 7.260590791702D-06 5.153600717545D+03
    3.672000000000D+05-1.341104507446D-07-3.002502668482D+00 1.043081283569D-07
    9.634402222153D-01 2.431250000000D+02-1.945826831064D+00-8.329989834655D-09
    3.178703834345D-10 1.000000000000D+00 1.922000000000D+03 0.000000000000D+00
    2.000000000000D+00 0.000000000000D+00-9.313225746155D-09 2.900000000000D+01
    3.600000000000D+05 4.000000000000D+00
15 16 11 10  6  0  0.0-3.338139504194D-04-1.250555214938D-12 0.000000000000D+00
    8.300000000000D+01 7.093750000000D+01 5.322007397256D-09-1.406241297423D-01
    3.833323717117D-06 8.743696496822D-03 8.072704076767D-06 5.153697463989D+03
    3.672000000000D+05 6.146728992462D-08 3.138960436793D+00 6.332993507385D-08
    9.303760748580D-01 2.062812500000D+02 5.282741544990D-01-8.615001706544D-09
    3.621579424748D-10 1.000000000000D+00 1.922000000000D+03 0.000000000000D+00
    2.000000000000D+00 0.000000000000D+00-1.071020960808D-08 8.300000000000D+01
    3.600000000000D+05
17 16 11 10  6  0  0.0-1.994636841118D-04 7.958078640513D-13 0.000000000000D+00
    8.500000000000D+01 4.684375000000D+01 4.406969282245D-09 5.774601155203D-01
    2.516433596611D-06 1.142114645336D-02 7.364898920059D-06 5.153767732620D+03
    3.672000000000D+05-1.136213541031D-07 1.091287806232D-01 1.676380634308D-08
    9.783668493635D-01 2.498437500000D+02-1.913028879206D+00-8.324632468642D-09
    2.853690296227D-10 1.000000000000D+00 1.922000000000D+03 0.000000000000D+00
    2.800000000000D+00 0.000000000000D+00-1.071020960808D-08 8.500000000000D+01
    3.600000000000D+05
18 16 11 10  6  0  0.0 5.746702663600D-04 3.296918293930D-12 0.000000000000D+00
    7.700000000000D+01-4.131250000000D+01 4.975921552820D-09 2.168031950940D+00
   -2.240762114520D-06 1.727906952150D-02 1.091137528420D-05 5.153731521610D+03
    3.672000000000D+05 1.844018697740D-07 2.119136341120D+00-3.352761268620D-07
    9.250580092250D-01 1.470312500000D+02-1.852576076120D+00-8.048906697840D-09
   -1.050043738540D-10 1.000000000000D+00 1.922000000000D+03 0.000000000000D+00
    2.400000000000D+00 0.000000000000D+00-1.117587089540D-08 7.700000000000D+01
    3.614280000000D+05 4.000000000000D+00
